[{"OBJECT_NAME":"ITAMSAT (IO-26)","OBJECT_ID":"1993-061D","EPOCH":"2026-03-09T18:51:40.558176","MEAN_MOTION":14.31337175,"ECCENTRICITY":0.00091856,"INCLINATION":98.6929,"RA_OF_ASC_NODE":136.1036,"ARG_OF_PERICENTER":22.8845,"MEAN_ANOMALY":337.2746,"EPHEMERIS_TYPE":0,"CLASSIFICATION_TYPE":"U","NORAD_CAT_ID":22826,"ELEMENT_SET_NO":999,"REV_AT_EPOCH":69309,"BSTAR":7.3937292e-5,"MEAN_MOTION_DOT":1.51e-6,"MEAN_MOTION_DDOT":0},{"OBJECT_NAME":"METEOR 2-8 DEB","OBJECT_ID":"1982-025Y","EPOCH":"2026-03-07T23:10:37.040736","MEAN_MOTION":14.30156088,"ECCENTRICITY":0.00195592,"INCLINATION":82.5172,"RA_OF_ASC_NODE":261.0264,"ARG_OF_PERICENTER":351.9115,"MEAN_ANOMALY":8.1752,"EPHEMERIS_TYPE":0,"CLASSIFICATION_TYPE":"U","NORAD_CAT_ID":36338,"ELEMENT_SET_NO":999,"REV_AT_EPOCH":9128,"BSTAR":0.0028287736,"MEAN_MOTION_DOT":7.351e-5,"MEAN_MOTION_DDOT":0}]
